[{"OBJECT_NAME":"FLOCK 4BE-22","OBJECT_ID":"2024-149AC","EPOCH":"2026-03-14T15:21:32.062752","MEAN_MOTION":15.3797516,"ECCENTRICITY":0.00031033,"INCLINATION":97.3773,"RA_OF_ASC_NODE":156.5128,"ARG_OF_PERICENTER":235.3516,"MEAN_ANOMALY":124.7437,"EPHEMERIS_TYPE":0,"CLASSIFICATION_TYPE":"U","NORAD_CAT_ID":60494,"ELEMENT_SET_NO":999,"REV_AT_EPOCH":8775,"BSTAR":0.0007590354,"MEAN_MOTION_DOT":0.00028341,"MEAN_MOTION_DDOT":0},{"OBJECT_NAME":"FLOCK 4BE-34","OBJECT_ID":"2024-149AD","EPOCH":"2026-03-14T22:06:58.843296","MEAN_MOTION":15.38183338,"ECCENTRICITY":0.0002883,"INCLINATION":97.3818,"RA_OF_ASC_NODE":157.5497,"ARG_OF_PERICENTER":234.194,"MEAN_ANOMALY":125.9038,"EPHEMERIS_TYPE":0,"CLASSIFICATION_TYPE":"U","NORAD_CAT_ID":60495,"ELEMENT_SET_NO":999,"REV_AT_EPOCH":8782,"BSTAR":0.00052613182,"MEAN_MOTION_DOT":0.00019731,"MEAN_MOTION_DDOT":0},{"OBJECT_NAME":"FLOCK 4BE-32","OBJECT_ID":"2024-149AF","EPOCH":"2026-03-14T19:23:09.247488","MEAN_MOTION":15.38738644,"ECCENTRICITY":0.00030873,"INCLINATION":97.3762,"RA_OF_ASC_NODE":156.9419,"ARG_OF_PERICENTER":235.5297,"MEAN_ANOMALY":124.5657,"EPHEMERIS_TYPE":0,"CLASSIFICATION_TYPE":"U","NORAD_CAT_ID":60497,"ELEMENT_SET_NO":999,"REV_AT_EPOCH":8780,"BSTAR":0.00072151552,"MEAN_MOTION_DOT":0.00027611,"MEAN_MOTION_DDOT":0},{"OBJECT_NAME":"FLOCK 4BE-30","OBJECT_ID":"2024-149AH","EPOCH":"2026-03-14T16:31:44.384160","MEAN_MOTION":15.39114658,"ECCENTRICITY":0.00023685,"INCLINATION":97.3839,"RA_OF_ASC_NODE":157.3905,"ARG_OF_PERICENTER":243.8091,"MEAN_ANOMALY":116.2911,"EPHEMERIS_TYPE":0,"CLASSIFICATION_TYPE":"U","NORAD_CAT_ID":60499,"ELEMENT_SET_NO":999,"REV_AT_EPOCH":8716,"BSTAR":0.0026081184,"MEAN_MOTION_DOT":0.00102237,"MEAN_MOTION_DDOT":0},{"OBJECT_NAME":"FLOCK 4BE-11","OBJECT_ID":"2024-149AK","EPOCH":"2026-03-14T17:21:43.891488","MEAN_MOTION":15.39557827,"ECCENTRICITY":0.00032715,"INCLINATION":97.3738,"RA_OF_ASC_NODE":156.9932,"ARG_OF_PERICENTER":238.4182,"MEAN_ANOMALY":121.6745,"EPHEMERIS_TYPE":0,"CLASSIFICATION_TYPE":"U","NORAD_CAT_ID":60501,"ELEMENT_SET_NO":999,"REV_AT_EPOCH":8780,"BSTAR":0.00069537167,"MEAN_MOTION_DOT":0.00027328,"MEAN_MOTION_DDOT":0},{"OBJECT_NAME":"FLOCK 4BE-24","OBJECT_ID":"2024-149AP","EPOCH":"2026-03-14T16:55:58.593792","MEAN_MOTION":15.39403654,"ECCENTRICITY":0.00032837,"INCLINATION":97.3756,"RA_OF_ASC_NODE":157.2208,"ARG_OF_PERICENTER":250.9337,"MEAN_ANOMALY":109.1553,"EPHEMERIS_TYPE":0,"CLASSIFICATION_TYPE":"U","NORAD_CAT_ID":60505,"ELEMENT_SET_NO":999,"REV_AT_EPOCH":8781,"BSTAR":0.00071190748,"MEAN_MOTION_DOT":0.00027841,"MEAN_MOTION_DDOT":0},{"OBJECT_NAME":"TANAGER-1","OBJECT_ID":"2024-149AR","EPOCH":"2026-03-14T07:06:12.938976","MEAN_MOTION":15.43551158,"ECCENTRICITY":0.00080627,"INCLINATION":97.3772,"RA_OF_ASC_NODE":166.7415,"ARG_OF_PERICENTER":227.8124,"MEAN_ANOMALY":132.244,"EPHEMERIS_TYPE":0,"CLASSIFICATION_TYPE":"U","NORAD_CAT_ID":60507,"ELEMENT_SET_NO":999,"REV_AT_EPOCH":8839,"BSTAR":0.00053127558,"MEAN_MOTION_DOT":0.00023831,"MEAN_MOTION_DDOT":0},{"OBJECT_NAME":"FLOCK 4BE-29","OBJECT_ID":"2024-149AT","EPOCH":"2026-03-14T17:28:13.236672","MEAN_MOTION":15.40715933,"ECCENTRICITY":0.00019511,"INCLINATION":97.3838,"RA_OF_ASC_NODE":158.4073,"ARG_OF_PERICENTER":264.699,"MEAN_ANOMALY":95.4034,"EPHEMERIS_TYPE":0,"CLASSIFICATION_TYPE":"U","NORAD_CAT_ID":60509,"ELEMENT_SET_NO":999,"REV_AT_EPOCH":8785,"BSTAR":0.00070285251,"MEAN_MOTION_DOT":0.00028697,"MEAN_MOTION_DDOT":0},{"OBJECT_NAME":"FLOCK 4BE-2","OBJECT_ID":"2024-149AV","EPOCH":"2026-03-14T22:41:39.633504","MEAN_MOTION":15.4376489,"ECCENTRICITY":0.00031688,"INCLINATION":97.3846,"RA_OF_ASC_NODE":159.2292,"ARG_OF_PERICENTER":247.2538,"MEAN_ANOMALY":112.8376,"EPHEMERIS_TYPE":0,"CLASSIFICATION_TYPE":"U","NORAD_CAT_ID":60511,"ELEMENT_SET_NO":999,"REV_AT_EPOCH":8792,"BSTAR":0.0011714591,"MEAN_MOTION_DOT":0.00053181,"MEAN_MOTION_DDOT":0},{"OBJECT_NAME":"FLOCK 4BE-13","OBJECT_ID":"2024-149AW","EPOCH":"2026-03-14T17:06:41.983488","MEAN_MOTION":15.39052937,"ECCENTRICITY":0.0003519,"INCLINATION":97.3753,"RA_OF_ASC_NODE":157.3269,"ARG_OF_PERICENTER":241.0262,"MEAN_ANOMALY":119.0631,"EPHEMERIS_TYPE":0,"CLASSIFICATION_TYPE":"U","NORAD_CAT_ID":60512,"ELEMENT_SET_NO":999,"REV_AT_EPOCH":8782,"BSTAR":0.00064817598,"MEAN_MOTION_DOT":0.00025044,"MEAN_MOTION_DDOT":0},{"OBJECT_NAME":"FLOCK 4BE-27","OBJECT_ID":"2024-149AX","EPOCH":"2026-03-14T17:10:03.387936","MEAN_MOTION":15.32714859,"ECCENTRICITY":0.00026588,"INCLINATION":97.3866,"RA_OF_ASC_NODE":155.632,"ARG_OF_PERICENTER":278.9058,"MEAN_ANOMALY":81.1883,"EPHEMERIS_TYPE":0,"CLASSIFICATION_TYPE":"U","NORAD_CAT_ID":60513,"ELEMENT_SET_NO":999,"REV_AT_EPOCH":8766,"BSTAR":0.00045641004,"MEAN_MOTION_DOT":0.00014354,"MEAN_MOTION_DDOT":0},{"OBJECT_NAME":"FLOCK 4BE-9","OBJECT_ID":"2024-149AY","EPOCH":"2026-03-14T16:51:38.681856","MEAN_MOTION":15.37792379,"ECCENTRICITY":0.00017132,"INCLINATION":97.3829,"RA_OF_ASC_NODE":157.2603,"ARG_OF_PERICENTER":259.5281,"MEAN_ANOMALY":100.5771,"EPHEMERIS_TYPE":0,"CLASSIFICATION_TYPE":"U","NORAD_CAT_ID":60514,"ELEMENT_SET_NO":999,"REV_AT_EPOCH":8778,"BSTAR":0.00063938102,"MEAN_MOTION_DOT":0.00023703,"MEAN_MOTION_DDOT":0},{"OBJECT_NAME":"FLOCK 4BE-6","OBJECT_ID":"2024-149BA","EPOCH":"2026-03-14T19:04:03.275040","MEAN_MOTION":15.36812995,"ECCENTRICITY":0.00024553,"INCLINATION":97.3827,"RA_OF_ASC_NODE":156.87,"ARG_OF_PERICENTER":260.9916,"MEAN_ANOMALY":99.1051,"EPHEMERIS_TYPE":0,"CLASSIFICATION_TYPE":"U","NORAD_CAT_ID":60516,"ELEMENT_SET_NO":999,"REV_AT_EPOCH":8776,"BSTAR":0.00055327557,"MEAN_MOTION_DOT":0.00019853,"MEAN_MOTION_DDOT":0},{"OBJECT_NAME":"FLOCK 4BE-14","OBJECT_ID":"2024-149BB","EPOCH":"2026-03-14T17:23:15.619776","MEAN_MOTION":15.37887702,"ECCENTRICITY":0.00033537,"INCLINATION":97.3732,"RA_OF_ASC_NODE":156.8741,"ARG_OF_PERICENTER":262.9001,"MEAN_ANOMALY":97.1863,"EPHEMERIS_TYPE":0,"CLASSIFICATION_TYPE":"U","NORAD_CAT_ID":60517,"ELEMENT_SET_NO":999,"REV_AT_EPOCH":8779,"BSTAR":0.00059929333,"MEAN_MOTION_DOT":0.00022279,"MEAN_MOTION_DDOT":0},{"OBJECT_NAME":"FLOCK 4BE-1","OBJECT_ID":"2024-149BC","EPOCH":"2026-03-14T16:50:36.936960","MEAN_MOTION":15.39207617,"ECCENTRICITY":0.00033617,"INCLINATION":97.3816,"RA_OF_ASC_NODE":157.8105,"ARG_OF_PERICENTER":259.4116,"MEAN_ANOMALY":100.6751,"EPHEMERIS_TYPE":0,"CLASSIFICATION_TYPE":"U","NORAD_CAT_ID":60518,"ELEMENT_SET_NO":999,"REV_AT_EPOCH":8782,"BSTAR":0.00070194237,"MEAN_MOTION_DOT":0.00027273,"MEAN_MOTION_DDOT":0},{"OBJECT_NAME":"FLOCK 4BE-28","OBJECT_ID":"2024-149BD","EPOCH":"2026-03-14T17:18:50.302656","MEAN_MOTION":15.41275495,"ECCENTRICITY":0.00034808,"INCLINATION":97.3775,"RA_OF_ASC_NODE":158.2786,"ARG_OF_PERICENTER":261.8223,"MEAN_ANOMALY":98.2629,"EPHEMERIS_TYPE":0,"CLASSIFICATION_TYPE":"U","NORAD_CAT_ID":60519,"ELEMENT_SET_NO":999,"REV_AT_EPOCH":8787,"BSTAR":0.00071243532,"MEAN_MOTION_DOT":0.00029641,"MEAN_MOTION_DDOT":0}]
