FLOCK 4BE-22            
1 60494U 24149AC  26073.63995443  .00028341  00000+0  75904-3 0  9999
2 60494  97.3773 156.5128 0003103 235.3516 124.7437 15.37975160 87750
FLOCK 4BE-34            
1 60495U 24149AD  26073.92151439  .00019731  00000+0  52613-3 0  9996
2 60495  97.3818 157.5497 0002883 234.1940 125.9038 15.38183338 87820
FLOCK 4BE-32            
1 60497U 24149AF  26073.80774592  .00027611  00000+0  72152-3 0  9992
2 60497  97.3762 156.9419 0003087 235.5297 124.5657 15.38738644 87800
FLOCK 4BE-30            
1 60499U 24149AH  26073.68870815  .00102237  00000+0  26081-2 0  9992
2 60499  97.3839 157.3905 0002368 243.8091 116.2911 15.39114658 87161
FLOCK 4BE-11            
1 60501U 24149AK  26073.72342467  .00027328  00000+0  69537-3 0  9999
2 60501  97.3738 156.9932 0003271 238.4182 121.6745 15.39557827 87808
FLOCK 4BE-24            
1 60505U 24149AP  26073.70553928  .00027841  00000+0  71191-3 0  9996
2 60505  97.3756 157.2208 0003283 250.9337 109.1553 15.39403654 87813
TANAGER-1               
1 60507U 24149AR  26073.29598309  .00023831  00000+0  53128-3 0  9999
2 60507  97.3772 166.7415 0008062 227.8124 132.2440 15.43551158 88399
FLOCK 4BE-29            
1 60509U 24149AT  26073.72793098  .00028697  00000+0  70285-3 0  9999
2 60509  97.3838 158.4073 0001951 264.6990  95.4034 15.40715933 87851
FLOCK 4BE-2             
1 60511U 24149AV  26073.94559761  .00053181  00000+0  11715-2 0  9991
2 60511  97.3846 159.2292 0003168 247.2538 112.8376 15.43764890 87922
FLOCK 4BE-13            
1 60512U 24149AW  26073.71298592  .00025044  00000+0  64818-3 0  9999
2 60512  97.3753 157.3269 0003519 241.0262 119.0631 15.39052937 87828
FLOCK 4BE-27            
1 60513U 24149AX  26073.71531699  .00014354  00000+0  45641-3 0  9993
2 60513  97.3866 155.6320 0002658 278.9058  81.1883 15.32714859 87669
FLOCK 4BE-9             
1 60514U 24149AY  26073.70253104  .00023703  00000+0  63938-3 0  9992
2 60514  97.3829 157.2603 0001713 259.5281 100.5771 15.37792379 87788
FLOCK 4BE-6             
1 60516U 24149BA  26073.79448235  .00019853  00000+0  55328-3 0  9999
2 60516  97.3827 156.8700 0002455 260.9916  99.1051 15.36812995 87764
FLOCK 4BE-14            
1 60517U 24149BB  26073.72448634  .00022279  00000+0  59929-3 0  9993
2 60517  97.3732 156.8741 0003353 262.9001  97.1863 15.37887702 87791
FLOCK 4BE-1             
1 60518U 24149BC  26073.70181640  .00027273  00000+0  70194-3 0  9999
2 60518  97.3816 157.8105 0003361 259.4116 100.6751 15.39207617 87820
FLOCK 4BE-28            
1 60519U 24149BD  26073.72141554  .00029641  00000+0  71244-3 0  9990
2 60519  97.3775 158.2786 0003480 261.8223  98.2629 15.41275495 87876
